[
    {
        "Altitude(m)": 553490.0473013944,
        "Argument of Periapsis(deg)": 0.019868973332140504,
        "Eccentricity": 0.0,
        "Inclination(deg)": 53.0,
        "Latitude(deg)": 10.606396402773825,
        "Longitude(deg)": -40.447836210346054,
        "Mean Anomaly(deg)": -193.36152139726724,
        "RAAN(deg)": 249.97043010558406,
        "Satellite Name": "Starlink Shell 1 1108",
        "Satellite Number": 1108,
        "Semi-Major Axis(m)": 6931778.249405717,
        "Time(s)": 570
    },
    {
        "Altitude(m)": 553498.0468570937,
        "Argument of Periapsis(deg)": 0.02021755181165174,
        "Eccentricity": 0.0,
        "Inclination(deg)": 53.0,
        "Latitude(deg)": 10.10721961584095,
        "Longitude(deg)": -40.09986200818532,
        "Mean Anomaly(deg)": -192.73469019371052,
        "RAAN(deg)": 249.9699113355066,
        "Satellite Name": "Starlink Shell 1 1108",
        "Satellite Number": 1108,
        "Semi-Major Axis(m)": 6931778.249405717,
        "Time(s)": 580
    },
    {
        "Altitude(m)": 553508.73215423,
        "Argument of Periapsis(deg)": 0.020566130291162974,
        "Eccentricity": 0.0,
        "Inclination(deg)": 53.0,
        "Latitude(deg)": 9.607574994804983,
        "Longitude(deg)": -39.75309079397155,
        "Mean Anomaly(deg)": -192.10785899015383,
        "RAAN(deg)": 249.96939256542916,
        "Satellite Name": "Starlink Shell 1 1108",
        "Satellite Number": 1108,
        "Semi-Major Axis(m)": 6931778.249405717,
        "Time(s)": 590
    },
    {
        "Altitude(m)": 553522.1211676345,
        "Argument of Periapsis(deg)": 0.020914708770674213,
        "Eccentricity": 0.0,
        "Inclination(deg)": 53.0,
        "Latitude(deg)": 9.107487825285578,
        "Longitude(deg)": -39.40746003066169,
        "Mean Anomaly(deg)": -191.4810277865971,
        "RAAN(deg)": 249.96887379535167,
        "Satellite Name": "Starlink Shell 1 1108",
        "Satellite Number": 1108,
        "Semi-Major Axis(m)": 6931778.249405717,
        "Time(s)": 600
    },
    {
        "Altitude(m)": 553538.230616136,
        "Argument of Periapsis(deg)": 0.021263287250185448,
        "Eccentricity": 0.0,
        "Inclination(deg)": 53.0,
        "Latitude(deg)": 8.606983152267787,
        "Longitude(deg)": -39.06290767789862,
        "Mean Anomaly(deg)": -190.85419658304042,
        "RAAN(deg)": 249.96835502527415,
        "Satellite Name": "Starlink Shell 1 1108",
        "Satellite Number": 1108,
        "Semi-Major Axis(m)": 6931778.249405717,
        "Time(s)": 610
    },
    {
        "Altitude(m)": 553557.0759514531,
        "Argument of Periapsis(deg)": 0.021611865729696686,
        "Eccentricity": 0.0,
        "Inclination(deg)": 53.0,
        "Latitude(deg)": 8.106085793803496,
        "Longitude(deg)": -38.7193716613155,
        "Mean Anomaly(deg)": -190.22736537948367,
        "RAAN(deg)": 249.96783625519674,
        "Satellite Name": "Starlink Shell 1 1108",
        "Satellite Number": 1108,
        "Semi-Major Axis(m)": 6931778.249405717,
        "Time(s)": 620
    },
    {
        "Altitude(m)": 553578.6713477377,
        "Argument of Periapsis(deg)": 0.02196044420920792,
        "Eccentricity": 0.0,
        "Inclination(deg)": 53.0,
        "Latitude(deg)": 7.6048203544991955,
        "Longitude(deg)": -38.376791022904854,
        "Mean Anomaly(deg)": -189.60053417592695,
        "RAAN(deg)": 249.96731748511925,
        "Satellite Name": "Starlink Shell 1 1108",
        "Satellite Number": 1108,
        "Semi-Major Axis(m)": 6931778.249405717,
        "Time(s)": 630
    },
    {
        "Altitude(m)": 553603.0296917793,
        "Argument of Periapsis(deg)": 0.02230902268871916,
        "Eccentricity": 0.0,
        "Inclination(deg)": 53.0,
        "Latitude(deg)": 7.103211238806765,
        "Longitude(deg)": -38.035104550025714,
        "Mean Anomaly(deg)": -188.97370297237023,
        "RAAN(deg)": 249.96679871504176,
        "Satellite Name": "Starlink Shell 1 1108",
        "Satellite Number": 1108,
        "Semi-Major Axis(m)": 6931778.249405717,
        "Time(s)": 640
    },
    {
        "Altitude(m)": 553630.1625737993,
        "Argument of Periapsis(deg)": 0.022657601168230398,
        "Eccentricity": 0.0,
        "Inclination(deg)": 53.0,
        "Latitude(deg)": 6.601282664122697,
        "Longitude(deg)": -37.69425192596136,
        "Mean Anomaly(deg)": -188.3468717688135,
        "RAAN(deg)": 249.9662799449643,
        "Satellite Name": "Starlink Shell 1 1108",
        "Satellite Number": 1108,
        "Semi-Major Axis(m)": 6931778.249405717,
        "Time(s)": 650
    },
    {
        "Altitude(m)": 553660.0802789032,
        "Argument of Periapsis(deg)": 0.023006179647741636,
        "Eccentricity": 0.0,
        "Inclination(deg)": 53.0,
        "Latitude(deg)": 6.0990586737133965,
        "Longitude(deg)": -37.35417319959863,
        "Mean Anomaly(deg)": -187.7200405652568,
        "RAAN(deg)": 249.96576117488684,
        "Satellite Name": "Starlink Shell 1 1108",
        "Satellite Number": 1108,
        "Semi-Major Axis(m)": 6931778.249405717,
        "Time(s)": 660
    },
    {
        "Altitude(m)": 553692.7917792096,
        "Argument of Periapsis(deg)": 0.023354758127252868,
        "Eccentricity": 0.0,
        "Inclination(deg)": 53.0,
        "Latitude(deg)": 5.596563149476419,
        "Longitude(deg)": -37.01480825519823,
        "Mean Anomaly(deg)": -187.09320936170013,
        "RAAN(deg)": 249.96524240480935,
        "Satellite Name": "Starlink Shell 1 1108",
        "Satellite Number": 1108,
        "Semi-Major Axis(m)": 6931778.249405717,
        "Time(s)": 670
    },
    {
        "Altitude(m)": 553728.3047265835,
        "Argument of Periapsis(deg)": 0.023703336606764106,
        "Eccentricity": 0.0,
        "Inclination(deg)": 53.0,
        "Latitude(deg)": 5.09381982454754,
        "Longitude(deg)": -36.67609779512622,
        "Mean Anomaly(deg)": -186.46637815814336,
        "RAAN(deg)": 249.96472363473188,
        "Satellite Name": "Starlink Shell 1 1108",
        "Satellite Number": 1108,
        "Semi-Major Axis(m)": 6931778.249405717,
        "Time(s)": 680
    },
    {
        "Altitude(m)": 553766.6254460705,
        "Argument of Periapsis(deg)": 0.024051915086275345,
        "Eccentricity": 0.0,
        "Inclination(deg)": 53.0,
        "Latitude(deg)": 4.5908522957688165,
        "Longitude(deg)": -36.337982809795704,
        "Mean Anomaly(deg)": -185.83954695458667,
        "RAAN(deg)": 249.9642048646544,
        "Satellite Name": "Starlink Shell 1 1108",
        "Satellite Number": 1108,
        "Semi-Major Axis(m)": 6931778.249405717,
        "Time(s)": 690
    },
    {
        "Altitude(m)": 553807.7589299554,
        "Argument of Periapsis(deg)": 0.024400493565786583,
        "Eccentricity": 0.0,
        "Inclination(deg)": 53.0,
        "Latitude(deg)": 4.087684036027963,
        "Longitude(deg)": -36.0004040476887,
        "Mean Anomaly(deg)": -185.21271575102995,
        "RAAN(deg)": 249.9636860945769,
        "Satellite Name": "Starlink Shell 1 1108",
        "Satellite Number": 1108,
        "Semi-Major Axis(m)": 6931778.249405717,
        "Time(s)": 700
    },
    {
        "Altitude(m)": 553851.7088325087,
        "Argument of Periapsis(deg)": 0.024749072045297815,
        "Eccentricity": 0.0,
        "Inclination(deg)": 53.0,
        "Latitude(deg)": 3.584338406478554,
        "Longitude(deg)": -35.663302998325626,
        "Mean Anomaly(deg)": -184.58588454747326,
        "RAAN(deg)": 249.9631673244995,
        "Satellite Name": "Starlink Shell 1 1108",
        "Satellite Number": 1108,
        "Semi-Major Axis(m)": 6931778.249405717,
        "Time(s)": 710
    },
    {
        "Altitude(m)": 553898.477465392,
        "Argument of Periapsis(deg)": 0.025097650524809053,
        "Eccentricity": 0.0,
        "Inclination(deg)": 53.0,
        "Latitude(deg)": 3.08083866865589,
        "Longitude(deg)": -35.326621362430984,
        "Mean Anomaly(deg)": -183.9590533439165,
        "RAAN(deg)": 249.962648554422,
        "Satellite Name": "Starlink Shell 1 1108",
        "Satellite Number": 1108,
        "Semi-Major Axis(m)": 6931778.249405717,
        "Time(s)": 720
    },
    {
        "Altitude(m)": 553948.0657937308,
        "Argument of Periapsis(deg)": 0.02544622900432029,
        "Eccentricity": 0.0,
        "Inclination(deg)": 53.0,
        "Latitude(deg)": 2.577207996499775,
        "Longitude(deg)": -34.99030052216249,
        "Mean Anomaly(deg)": -183.3322221403598,
        "RAAN(deg)": 249.96212978434448,
        "Satellite Name": "Starlink Shell 1 1108",
        "Satellite Number": 1108,
        "Semi-Major Axis(m)": 6931778.249405717,
        "Time(s)": 730
    },
    {
        "Altitude(m)": 554000.473432863,
        "Argument of Periapsis(deg)": 0.02579480748383153,
        "Eccentricity": 0.0,
        "Inclination(deg)": 53.0,
        "Latitude(deg)": 2.07346948829125,
        "Longitude(deg)": -34.65428252427024,
        "Mean Anomaly(deg)": -182.70539093680307,
        "RAAN(deg)": 249.96161101426708,
        "Satellite Name": "Starlink Shell 1 1108",
        "Satellite Number": 1108,
        "Semi-Major Axis(m)": 6931778.249405717,
        "Time(s)": 740
    },
    {
        "Altitude(m)": 554055.6986457588,
        "Argument of Periapsis(deg)": 0.026143385963342765,
        "Eccentricity": 0.0,
        "Inclination(deg)": 53.0,
        "Latitude(deg)": 1.5696461785207587,
        "Longitude(deg)": -34.31850955043386,
        "Mean Anomaly(deg)": -182.07855973324632,
        "RAAN(deg)": 249.9610922441896,
        "Satellite Name": "Starlink Shell 1 1108",
        "Satellite Number": 1108,
        "Semi-Major Axis(m)": 6931778.249405717,
        "Time(s)": 750
    }
]